{
    "links": {
        "self": "http://www.neowsapp.com/rest/v1/neo/54097871?api_key=iIulBulltgU6a56xZRHN4H3l9WmuAYTsLGpBGhQ2"
    },
    "id": "54097871",
    "neo_reference_id": "54097871",
    "name": "(2020 WV5)",
    "designation": "2020 WV5",
    "nasa_jpl_url": "http://ssd.jpl.nasa.gov/sbdb.cgi?sstr=54097871",
    "absolute_magnitude_h": 20.068,
    "estimated_diameter": {
        "kilometers": {
            "estimated_diameter_min": 0.2576054083,
            "estimated_diameter_max": 0.5760232044
        },
        "meters": {
            "estimated_diameter_min": 257.6054083132,
            "estimated_diameter_max": 576.0232043599
        },
        "miles": {
            "estimated_diameter_min": 0.1600685302,
            "estimated_diameter_max": 0.3579241145
        },
        "feet": {
            "estimated_diameter_min": 845.1621278102,
            "estimated_diameter_max": 1889.8399697921
        }
    },
    "is_potentially_hazardous_asteroid": false,
    "close_approach_data": [
        {
            "close_approach_date": "2021-02-23",
            "close_approach_date_full": "2021-Feb-23 18:11",
            "epoch_date_close_approach": 1614103860000,
            "relative_velocity": {
                "kilometers_per_second": "15.3176802227",
                "kilometers_per_hour": "55143.6488016055",
                "miles_per_hour": "34264.1188900865"
            },
            "miss_distance": {
                "astronomical": "0.4093600134",
                "lunar": "159.2410452126",
                "kilometers": "61239386.067811458",
                "miles": "38052389.9897678004"
            },
            "orbiting_body": "Earth"
        },
        {
            "close_approach_date": "2023-04-27",
            "close_approach_date_full": "2023-Apr-27 06:22",
            "epoch_date_close_approach": 1682576520000,
            "relative_velocity": {
                "kilometers_per_second": "6.5570609976",
                "kilometers_per_hour": "23605.4195914026",
                "miles_per_hour": "14667.4897455579"
            },
            "miss_distance": {
                "astronomical": "1.5394370433",
                "lunar": "598.8410098437",
                "kilometers": "230296502.676777771",
                "miles": "143099611.1462083998"
            },
            "orbiting_body": "Juptr"
        }
    ],
    "orbital_data": {
        "orbit_id": "2",
        "orbit_determination_date": "2020-12-08 05:24:05",
        "first_observation_date": "2020-11-22",
        "last_observation_date": "2020-12-08",
        "data_arc_in_days": 16,
        "observations_used": 24,
        "orbit_uncertainty": "8",
        "minimum_orbit_intersection": ".102536",
        "jupiter_tisserand_invariant": "3.132",
        "epoch_osculation": "2459184.5",
        "eccentricity": ".6749349609507104",
        "semi_major_axis": "2.334199012088181",
        "inclination": "24.04631897878266",
        "ascending_node_longitude": "56.49571584722192",
        "orbital_period": "1302.582527134574",
        "perihelion_distance": ".7587664930132577",
        "perihelion_argument": "132.0826685342291",
        "aphelion_distance": "3.909631531163104",
        "perihelion_time": "2459287.881091494885",
        "mean_anomaly": "331.4281497234351",
        "mean_motion": ".2763740434872325",
        "equinox": "J2000",
        "orbit_class": {
            "orbit_class_type": "APO",
            "orbit_class_description": "Near-Earth asteroid orbits which cross the Earth’s orbit similar to that of 1862 Apollo",
            "orbit_class_range": "a (semi-major axis) > 1.0 AU; q (perihelion) < 1.017 AU"
        }
    },
    "is_sentry_object": false
}